[{"OBJECT_NAME":"KUIPER-00120","OBJECT_ID":"2025-217A","EPOCH":"2026-03-09T09:39:14.260896","MEAN_MOTION":14.79937882,"ECCENTRICITY":7.237e-5,"INCLINATION":51.8993,"RA_OF_ASC_NODE":54.339,"ARG_OF_PERICENTER":91.7416,"MEAN_ANOMALY":268.363,"EPHEMERIS_TYPE":0,"CLASSIFICATION_TYPE":"U","NORAD_CAT_ID":65762,"ELEMENT_SET_NO":999,"REV_AT_EPOCH":2469,"BSTAR":0.00067951677,"MEAN_MOTION_DOT":4.963e-5,"MEAN_MOTION_DDOT":0},{"OBJECT_NAME":"NOAA 17 DEB","OBJECT_ID":"2002-032BH","EPOCH":"2026-03-08T13:29:57.200640","MEAN_MOTION":14.74112422,"ECCENTRICITY":0.00231821,"INCLINATION":98.7444,"RA_OF_ASC_NODE":103.0976,"ARG_OF_PERICENTER":249.0913,"MEAN_ANOMALY":110.7811,"EPHEMERIS_TYPE":0,"CLASSIFICATION_TYPE":"U","NORAD_CAT_ID":48724,"ELEMENT_SET_NO":999,"REV_AT_EPOCH":26297,"BSTAR":0.0030823368,"MEAN_MOTION_DOT":0.00020397,"MEAN_MOTION_DDOT":0}]
